{"type": "FeatureCollection", "features": [ {"type": "Feature", "properties": {"norad_id": 29868, "name": "FENGYUN 1C DEB", "group": "fengyun-1c-debris", "lat": 7.034598003642153, "lon": -133.4813437229331, "alt_km": 751.8299267024258, "timestamp": "2025-12-25T22:42:17.283107+00:00", "meta": {"OBJECT_NAME": "FENGYUN 1C DEB", "OBJECT_ID": "1999-025FN", "EPOCH": "2025-12-25T15:57:50.577408", "MEAN_MOTION": 14.78589184, "ECCENTRICITY": 0.0195383, "INCLINATION": 97.9481, "RA_OF_ASC_NODE": 45.2533, "ARG_OF_PERICENTER": 322.1232, "MEAN_ANOMALY": 157.7292, "EPHEMERIS_TYPE": 0, "CLASSIFICATION_TYPE": "U", "NORAD_CAT_ID": 29868, "ELEMENT_SET_NO": 999, "REV_AT_EPOCH": 486, "BSTAR": 0.00068419, "MEAN_MOTION_DOT": 6.845e-05, "MEAN_MOTION_DDOT": 0}, "tle": {"line1": "1 29868U 99025FN  25359.66516872  .00006845  00000+0  68419-3 0  9996", "line2": "2 29868  97.9481  45.2533 0195383 322.1232 157.7292 14.78589184  4865"}}, "geometry": {"type": "Point", "coordinates": [-133.4813437229331, 7.034598003642153]}}, {"type": "Feature", "properties": {"norad_id": 29869, "name": "FENGYUN 1C DEB", "group": "fengyun-1c-debris", "lat": 52.14944892545219, "lon": -80.95142975836278, "alt_km": 753.4778133028285, "timestamp": "2025-12-25T22:42:17.283117+00:00", "meta": {"OBJECT_NAME": "FENGYUN 1C DEB", "OBJECT_ID": "1999-025FP", "EPOCH": "2025-12-25T17:32:55.189248", "MEAN_MOTION": 14.36916876, "ECCENTRICITY": 0.0086908, "INCLINATION": 98.8746, "RA_OF_ASC_NODE": 290.4261, "ARG_OF_PERICENTER": 332.8325, "MEAN_ANOMALY": 48.5957, "EPHEMERIS_TYPE": 0, "CLASSIFICATION_TYPE": "U", "NORAD_CAT_ID": 29869, "ELEMENT_SET_NO": 999, "REV_AT_EPOCH": 99007, "BSTAR": 0.00042804, "MEAN_MOTION_DOT": 1.274e-05, "MEAN_MOTION_DDOT": 0}, "tle": {"line1": "1 29869U 99025FP  25359.73119432  .00001274  00000+0  42804-3 0  9997", "line2": "2 29869  98.8746 290.4261 0086908 332.8325  48.5957 14.36916876990073"}}, "geometry": {"type": "Point", "coordinates": [-80.95142975836278, 52.14944892545219]}}, {"type": "Feature", "properties": {"norad_id": 29870, "name": "FENGYUN 1C DEB", "group": "fengyun-1c-debris", "lat": 62.728643626417615, "lon": -46.308550240718766, "alt_km": 787.2133796181515, "timestamp": "2025-12-25T22:42:17.283127+00:00", "meta": {"OBJECT_NAME": "FENGYUN 1C DEB", "OBJECT_ID": "1999-025FQ", "EPOCH": "2025-12-25T11:12:47.237760", "MEAN_MOTION": 14.28984089, "ECCENTRICITY": 0.0120614, "INCLINATION": 98.4619, "RA_OF_ASC_NODE": 330.0115, "ARG_OF_PERICENTER": 154.9499, "MEAN_ANOMALY": 328.6551, "EPHEMERIS_TYPE": 0, "CLASSIFICATION_TYPE": "U", "NORAD_CAT_ID": 29870, "ELEMENT_SET_NO": 999, "REV_AT_EPOCH": 98775, "BSTAR": 5.2434e-05, "MEAN_MOTION_DOT": 1.01e-06, "MEAN_MOTION_DDOT": 0}, "tle": {"line1": "1 29870U 99025FQ  25359.46721340  .00000101  00000+0  52434-4 0  9995", "line2": "2 29870  98.4619 330.0115 0120614 154.9499 328.6551 14.28984089987752"}}, "geometry": {"type": "Point", "coordinates": [-46.308550240718766, 62.728643626417615]}}, {"type": "Feature", "properties": {"norad_id": 29871, "name": "FENGYUN 1C DEB", "group": "fengyun-1c-debris", "lat": -53.04735382025032, "lon": -34.112273435756336, "alt_km": 779.1374259035356, "timestamp": "2025-12-25T22:42:17.283138+00:00", "meta": {"OBJECT_NAME": "FENGYUN 1C DEB", "OBJECT_ID": "1999-025FR", "EPOCH": "2025-12-25T08:42:57.036960", "MEAN_MOTION": 14.42712206, "ECCENTRICITY": 0.0059052, "INCLINATION": 98.9749, "RA_OF_ASC_NODE": 313.1472, "ARG_OF_PERICENTER": 70.6362, "MEAN_ANOMALY": 90.4245, "EPHEMERIS_TYPE": 0, "CLASSIFICATION_TYPE": "U", "NORAD_CAT_ID": 29871, "ELEMENT_SET_NO": 999, "REV_AT_EPOCH": 98883, "BSTAR": 0.0010056, "MEAN_MOTION_DOT": 3.37e-05, "MEAN_MOTION_DDOT": 0}, "tle": {"line1": "1 29871U 99025FR  25359.36316015  .00003370  00000+0  10056-2 0  9997", "line2": "2 29871  98.9749 313.1472 0059052  70.6362  90.4245 14.42712206988830"}}, "geometry": {"type": "Point", "coordinates": [-34.112273435756336, -53.04735382025032]}}, {"type": "Feature", "properties": {"norad_id": 29872, "name": "FENGYUN 1C DEB", "group": "fengyun-1c-debris", "lat": -51.07513219904635, "lon": 26.042117157064816, "alt_km": 629.1831381949714, "timestamp": "2025-12-25T22:42:17.283149+00:00", "meta": {"OBJECT_NAME": "FENGYUN 1C DEB", "OBJECT_ID": "1999-025FS", "EPOCH": "2025-12-25T14:35:45.428352", "MEAN_MOTION": 14.39012504, "ECCENTRICITY": 0.0234927, "INCLINATION": 98.3448, "RA_OF_ASC_NODE": 15.2418, "ARG_OF_PERICENTER": 274.7458, "MEAN_ANOMALY": 82.694, "EPHEMERIS_TYPE": 0, "CLASSIFICATION_TYPE": "U", "NORAD_CAT_ID": 29872, "ELEMENT_SET_NO": 999, "REV_AT_EPOCH": 98777, "BSTAR": 0.00053526, "MEAN_MOTION_DOT": 2.228e-05, "MEAN_MOTION_DDOT": 0}, "tle": {"line1": "1 29872U 99025FS  25359.60816468  .00002228  00000+0  53526-3 0  9993", "line2": "2 29872  98.3448  15.2418 0234927 274.7458  82.6940 14.39012504987777"}}, "geometry": {"type": "Point", "coordinates": [26.042117157064816, -51.07513219904635]}}, {"type": "Feature", "properties": {"norad_id": 29873, "name": "FENGYUN 1C DEB", "group": "fengyun-1c-debris", "lat": -66.78825796956907, "lon": 17.570503243444154, "alt_km": 902.1322717229732, "timestamp": "2025-12-25T22:42:17.283159+00:00", "meta": {"OBJECT_NAME": "FENGYUN 1C DEB", "OBJECT_ID": "1999-025FT", "EPOCH": "2025-12-25T14:57:48.290112", "MEAN_MOTION": 13.98154056, "ECCENTRICITY": 0.0092484, "INCLINATION": 99.4414, "RA_OF_ASC_NODE": 220.0695, "ARG_OF_PERICENTER": 163.4719, "MEAN_ANOMALY": 261.4532, "EPHEMERIS_TYPE": 0, "CLASSIFICATION_TYPE": "U", "NORAD_CAT_ID": 29873, "ELEMENT_SET_NO": 999, "REV_AT_EPOCH": 96495, "BSTAR": 0.00041304, "MEAN_MOTION_DOT": 5.63e-06, "MEAN_MOTION_DDOT": 0}, "tle": {"line1": "1 29873U 99025FT  25359.62347558  .00000563  00000+0  41304-3 0  9996", "line2": "2 29873  99.4414 220.0695 0092484 163.4719 261.4532 13.98154056964952"}}, "geometry": {"type": "Point", "coordinates": [17.570503243444154, -66.78825796956907]}}, {"type": "Feature", "properties": {"norad_id": 29874, "name": "FENGYUN 1C DEB", "group": "fengyun-1c-debris", "lat": 53.4112611859836, "lon": 87.77450219341951, "alt_km": 863.9258204628359, "timestamp": "2025-12-25T22:42:17.283169+00:00", "meta": {"OBJECT_NAME": "FENGYUN 1C DEB", "OBJECT_ID": "1999-025FU", "EPOCH": "2025-12-25T15:31:22.650816", "MEAN_MOTION": 14.2900885, "ECCENTRICITY": 0.0103854, "INCLINATION": 98.3782, "RA_OF_ASC_NODE": 256.0365, "ARG_OF_PERICENTER": 313.548, "MEAN_ANOMALY": 73.433, "EPHEMERIS_TYPE": 0, "CLASSIFICATION_TYPE": "U", "NORAD_CAT_ID": 29874, "ELEMENT_SET_NO": 999, "REV_AT_EPOCH": 97032, "BSTAR": 0.0034166, "MEAN_MOTION_DOT": 9.129e-05, "MEAN_MOTION_DDOT": 0}, "tle": {"line1": "1 29874U 99025FU  25359.64678994  .00009129  00000+0  34166-2 0  9994", "line2": "2 29874  98.3782 256.0365 0103854 313.5480  73.4330 14.29008850970329"}}, "geometry": {"type": "Point", "coordinates": [87.77450219341951, 53.4112611859836]}}, {"type": "Feature", "properties": {"norad_id": 29875, "name": "FENGYUN 1C DEB", "group": "fengyun-1c-debris", "lat": 39.006783664490264, "lon": -122.31378994016497, "alt_km": 831.0090804008769, "timestamp": "2025-12-25T22:42:17.283179+00:00", "meta": {"OBJECT_NAME": "FENGYUN 1C DEB", "OBJECT_ID": "1999-025FV", "EPOCH": "2025-12-25T15:54:34.426944", "MEAN_MOTION": 14.24880353, "ECCENTRICITY": 0.0082611, "INCLINATION": 98.4032, "RA_OF_ASC_NODE": 50.5386, "ARG_OF_PERICENTER": 25.7961, "MEAN_ANOMALY": 102.2183, "EPHEMERIS_TYPE": 0, "CLASSIFICATION_TYPE": "U", "NORAD_CAT_ID": 29875, "ELEMENT_SET_NO": 999, "REV_AT_EPOCH": 98506, "BSTAR": 2.8378e-05, "MEAN_MOTION_DOT": 2.7e-07, "MEAN_MOTION_DDOT": 0}, "tle": {"line1": "1 29875U 99025FV  25359.66289846  .00000027  00000+0  28378-4 0  9999", "line2": "2 29875  98.4032  50.5386 0082611  25.7961 102.2183 14.24880353985067"}}, "geometry": {"type": "Point", "coordinates": [-122.31378994016497, 39.006783664490264]}}, {"type": "Feature", "properties": {"norad_id": 29876, "name": "FENGYUN 1C DEB", "group": "fengyun-1c-debris", "lat": 2.9494514510392658, "lon": -129.81001089821095, "alt_km": 868.4332714216926, "timestamp": "2025-12-25T22:42:17.283189+00:00", "meta": {"OBJECT_NAME": "FENGYUN 1C DEB", "OBJECT_ID": "1999-025FW", "EPOCH": "2025-12-25T17:22:51.444192", "MEAN_MOTION": 14.20305498, "ECCENTRICITY": 0.0060766, "INCLINATION": 98.3315, "RA_OF_ASC_NODE": 49.5484, "ARG_OF_PERICENTER": 339.436, "MEAN_ANOMALY": 144.1073, "EPHEMERIS_TYPE": 0, "CLASSIFICATION_TYPE": "U", "NORAD_CAT_ID": 29876, "ELEMENT_SET_NO": 999, "REV_AT_EPOCH": 98101, "BSTAR": 0.00014087, "MEAN_MOTION_DOT": 2.66e-06, "MEAN_MOTION_DDOT": 0}, "tle": {"line1": "1 29876U 99025FW  25359.72420653  .00000266  00000+0  14087-3 0  9996", "line2": "2 29876  98.3315  49.5484 0060766 339.4360 144.1073 14.20305498981015"}}, "geometry": {"type": "Point", "coordinates": [-129.81001089821095, 2.9494514510392658]}}, {"type": "Feature", "properties": {"norad_id": 29877, "name": "FENGYUN 1C DEB", "group": "fengyun-1c-debris", "lat": -70.45843767431516, "lon": 159.85546206395512, "alt_km": 806.337185938608, "timestamp": "2025-12-25T22:42:17.283200+00:00", "meta": {"OBJECT_NAME": "FENGYUN 1C DEB", "OBJECT_ID": "1999-025FX", "EPOCH": "2025-12-25T12:07:28.706304", "MEAN_MOTION": 14.24817699, "ECCENTRICITY": 0.0046459, "INCLINATION": 98.5372, "RA_OF_ASC_NODE": 4.464, "ARG_OF_PERICENTER": 180.8257, "MEAN_ANOMALY": 331.0513, "EPHEMERIS_TYPE": 0, "CLASSIFICATION_TYPE": "U", "NORAD_CAT_ID": 29877, "ELEMENT_SET_NO": 999, "REV_AT_EPOCH": 98155, "BSTAR": 0.00041599, "MEAN_MOTION_DOT": 9.39e-06, "MEAN_MOTION_DDOT": 0}, "tle": {"line1": "1 29877U 99025FX  25359.50519336  .00000939  00000+0  41599-3 0  9995", "line2": "2 29877  98.5372   4.4640 0046459 180.8257 331.0513 14.24817699981551"}}, "geometry": {"type": "Point", "coordinates": [159.85546206395512, -70.45843767431516]}}]}